NORAD_CAT_ID,OBJECT_NAME,OBJECT_TYPE,EPOCH,MEAN_MOTION,ECCENTRICITY,INCLINATION,RA_OF_ASC_NODE,ARG_OF_PERICENTER,MEAN_ANOMALY,BSTAR,MEAN_MOTION_DOT,MEAN_MOTION_DDOT,TLE_LINE0,TLE_LINE1,TLE_LINE2,SEMIMAJOR_AXIS,PERIOD,APOGEE,PERIGEE,DECAYED
56804.0,STARLINK-6069,PAYLOAD,2024-05-03 12:50:45,14.98341787,0.0002818,70.0006,226.6872,268.9895,91.0941,0.00010457,1.155e-05,0.0,0 STARLINK-6069,1 56804U 23078AP  24124.53524615  .00001155  00000-0  10457-3 0  9999,2 56804  70.0006 226.6872 0002818 268.9895  91.0941 14.98341787 52303,6950.156,96.106,573.98,570.063,0.0
56804.0,STARLINK-6069,PAYLOAD,2024-05-03 14:26:53,14.98341404,0.0002829,70.0007,226.519,268.5755,91.508,9.7441e-05,1.07e-05,0.0,0 STARLINK-6069,1 56804U 23078AP  24124.60200610  .00001070  00000-0  97441-4 0  9998,2 56804  70.0007 226.5190 0002829 268.5755  91.5080 14.98341404 52720,6950.158,96.106,573.989,570.056,0.0
56804.0,STARLINK-6069,PAYLOAD,2024-05-03 16:03:01,14.98342026,0.0002825,70.0007,226.3507,268.7738,91.3098,0.00010323,1.139e-05,0.0,0 STARLINK-6069,1 56804U 23078AP  24124.66876508  .00001139  00000-0  10323-3 0  9998,2 56804  70.0007 226.3507 0002825 268.7738  91.3098 14.98342026 52738,6950.156,96.106,573.984,570.057,0.0
56804.0,STARLINK-6069,PAYLOAD,2024-05-04 00:03:42,14.98334194,0.0002824,69.9999,225.5094,268.9098,91.1737,3.0253e-05,2.68e-06,0.0,0 STARLINK-6069,1 56804U 23078AP  24125.00257054  .00000268  00000-0  30253-4 0  9993,2 56804  69.9999 225.5094 0002824 268.9098  91.1737 14.98334194 52372,6950.18,96.107,574.008,570.082,0.0
56804.0,STARLINK-6069,PAYLOAD,2024-05-04 12:52:48,14.98313365,0.0002862,70.0003,224.1637,269.4124,90.6707,-0.00012363,-1.567e-05,0.0,0 STARLINK-6069,1 56804U 23078AP  24125.53667099 -.00001567  00000-0 -12363-3 0  9991,2 56804  70.0003 224.1637 0002862 269.4124  90.6707 14.98313365 52454,6950.244,96.108,574.098,570.12,0.0
56804.0,STARLINK-6069,PAYLOAD,2024-05-05 00:05:44,14.98321155,0.0003071,70.0,222.9844,268.7861,91.2946,-0.00012005,-1.525e-05,0.0,0 STARLINK-6069,1 56804U 23078AP  24126.00398897 -.00001525  00000-0 -12005-3 0  9998,2 56804  70.0000 222.9844 0003071 268.7861  91.2946 14.98321155 52526,6950.22,96.108,574.22,569.951,0.0
56804.0,STARLINK-6069,PAYLOAD,2024-05-05 12:54:48,14.98329913,0.0003024,70.0,221.638,268.0438,92.0375,-9.9598e-05,-1.281e-05,0.0,0 STARLINK-6069,1 56804U 23078AP  24126.53806439 -.00001281  00000-0 -99598-4 0  9994,2 56804  70.0000 221.6380 0003024 268.0438  92.0375 14.98329913 52602,6950.193,96.107,574.16,569.956,0.0
56804.0,STARLINK-6069,PAYLOAD,2024-05-05 14:30:56,14.98333329,0.0003094,69.9999,221.4696,269.1059,90.9745,-8.6294e-05,-1.123e-05,0.0,0 STARLINK-6069,1 56804U 23078AP  24126.60482161 -.00001123  00000-0 -86294-4 0  9998,2 56804  69.9999 221.4696 0003094 269.1059  90.9745 14.98333329 53023,6950.183,96.107,574.198,569.897,0.0
56804.0,STARLINK-6069,PAYLOAD,2024-05-05 16:07:04,14.98334362,0.0003083,70.0,221.3013,269.0941,90.9865,-7.0474e-05,-9.34e-06,0.0,0 STARLINK-6069,1 56804U 23078AP  24126.67158051 -.00000934  00000-0 -70474-4 0  9995,2 56804  70.0000 221.3013 0003083 269.0941  90.9865 14.98334362 53030,6950.179,96.107,574.187,569.902,0.0
56804.0,STARLINK-6069,PAYLOAD,2024-05-06 00:07:44,14.98338537,0.0003117,70.0001,220.4597,269.0974,90.9828,-4.6187e-05,-6.44e-06,0.0,0 STARLINK-6069,1 56804U 23078AP  24127.00537635 -.00000644  00000-0 -46187-4 0  9994,2 56804  70.0001 220.4597 0003117 269.0974  90.9828 14.98338537 52678,6950.166,96.106,574.198,569.865,0.0
56804.0,STARLINK-6069,PAYLOAD,2024-05-06 14:32:56,14.98339612,0.000312,69.9998,218.945,268.3323,91.7479,0.0003195,3.722e-05,0.0,0 STARLINK-6069,1 56804U 23078AP  24127.60620510  .00003722  00000-0  31950-3 0  9994,2 56804  69.9998 218.9450 0003120 268.3323  91.7479 14.98339612 53176,6950.163,96.106,574.197,569.86,0.0
56804.0,STARLINK-6069,PAYLOAD,2024-05-06 16:09:04,14.98341374,0.0003113,69.9999,218.7767,268.2503,91.8299,0.00033237,3.876e-05,0.0,0 STARLINK-6069,1 56804U 23078AP  24127.67296323  .00003876  00000-0  33237-3 0  9992,2 56804  69.9999 218.7767 0003113 268.2503  91.8299 14.98341374 52771,6950.158,96.106,574.186,569.859,0.0
56804.0,STARLINK-6069,PAYLOAD,2024-05-07 12:58:49,14.98332917,0.0002645,70.0012,216.5904,258.9601,101.1261,9.6957e-06,2.3e-07,0.0,0 STARLINK-6069,1 56804U 23078AP  24128.54085534  .00000023  00000-0  96957-5 0  9990,2 56804  70.0012 216.5904 0002645 258.9601 101.1261 14.98332917 52905,6950.184,96.107,573.887,570.211,0.0
56804.0,STARLINK-6069,PAYLOAD,2024-05-07 14:34:58,14.98331904,0.0002536,70.0014,216.4226,256.7574,103.3303,4.0501e-06,-4.5e-07,0.0,0 STARLINK-6069,1 56804U 23078AP  24128.60761662 -.00000045  00000-0  40501-5 0  9999,2 56804  70.0014 216.4226 0002536 256.7574 103.3303 14.98331904 53320,6950.187,96.107,573.815,570.289,0.0
56804.0,STARLINK-6069,PAYLOAD,2024-05-07 16:11:06,14.9833173,0.0002547,70.0013,216.2542,257.1231,102.9643,-4.936e-06,-1.52e-06,0.0,0 STARLINK-6069,1 56804U 23078AP  24128.67437677 -.00000152  00000-0 -49360-5 0  9994,2 56804  70.0013 216.2542 0002547 257.1231 102.9643 14.98331730 53335,6950.188,96.107,573.823,570.282,0.0
56804.0,STARLINK-6069,PAYLOAD,2024-05-08 13:00:51,14.98330511,0.0002663,70.0007,214.0656,263.0078,97.0778,-0.00021904,-2.705e-05,0.0,0 STARLINK-6069,1 56804U 23078AP  24129.54226201 -.00002705  00000-0 -21904-3 0  9998,2 56804  70.0007 214.0656 0002663 263.0078  97.0778 14.98330511 53052,6950.191,96.107,573.907,570.205,0.0
56804.0,STARLINK-6069,PAYLOAD,2024-05-08 14:36:59,14.98331185,0.0002649,70.0007,213.8974,262.7765,97.3093,-0.00020654,-2.556e-05,0.0,0 STARLINK-6069,1 56804U 23078AP  24129.60902114 -.00002556  00000-0 -20654-3 0  9994,2 56804  70.0007 213.8974 0002649 262.7765  97.3093 14.98331185 53472,6950.189,96.107,573.895,570.213,0.0
56804.0,STARLINK-6069,PAYLOAD,2024-05-09 05:02:11,14.98331711,0.0003021,69.9997,212.3808,267.6515,92.4298,-5.094e-06,-1.54e-06,0.0,0 STARLINK-6069,1 56804U 23078AP  24130.20985387 -.00000154  00000-0 -50940-5 0  9990,2 56804  69.9997 212.3808 0003021 267.6515  92.4298 14.98331711 53152,6950.188,96.107,574.152,569.953,0.0
56804.0,STARLINK-6069,PAYLOAD,2024-05-09 14:38:59,14.98335386,0.0002797,70.0004,211.371,266.3634,93.7205,8.814e-05,9.59e-06,0.0,0 STARLINK-6069,1 56804U 23078AP  24130.61040829  .00000959  00000-0  88140-4 0  9991,2 56804  70.0004 211.3710 0002797 266.3634  93.7205 14.98335386 53628,6950.176,96.107,573.985,570.097,0.0
56804.0,STARLINK-6069,PAYLOAD,2024-05-10 13:04:53,14.98317976,0.0003006,70.0003,209.0145,267.6704,92.411,9.5161e-05,1.042e-05,0.0,0 STARLINK-6069,1 56804U 23078AP  24131.54506022  .00001042  00000-0  95161-4 0  9991,2 56804  70.0003 209.0145 0003006 267.6704  92.4110 14.98317976 53355,6950.23,96.108,574.184,570.006,0.0
56804.0,STARLINK-6069,PAYLOAD,2024-05-10 14:41:01,14.98325065,0.0002929,70.0003,208.848,269.3851,90.6972,1.9693e-05,1.42e-06,0.0,0 STARLINK-6069,1 56804U 23078AP  24131.61181811  .00000142  00000-0  19693-4 0  9990,2 56804  70.0003 208.8480 0002929 269.3851  90.6972 14.98325065 53779,6950.208,96.107,574.109,570.037,0.0
56804.0,STARLINK-6069,PAYLOAD,2024-05-11 05:06:12,14.98343436,0.0003265,69.9999,207.3317,271.7574,88.3211,9.7548e-05,1.071e-05,0.0,0 STARLINK-6069,1 56804U 23078AP  24132.21264311  .00001071  00000-0  97548-4 0  9991,2 56804  69.9999 207.3317 0003265 271.7574  88.3211 14.98343436 53453,6950.151,96.106,574.286,569.747,0.0
56804.0,STARLINK-6069,PAYLOAD,2024-05-11 13:06:48,14.98393957,0.0002809,70.0005,206.4902,270.0874,89.9963,0.0005906,6.973e-05,0.0,0 STARLINK-6069,1 56804U 23078AP  24132.54638947  .00006973  00000-0  59060-3 0  9999,2 56804  70.0005 206.4902 0002809 270.0874  89.9963 14.98393957 53502,6949.995,96.103,573.812,569.908,0.0
56804.0,STARLINK-6069,PAYLOAD,2024-05-11 14:42:55,14.98404247,0.0003008,70.0004,206.3219,270.2752,89.8062,0.00068642,8.122e-05,0.0,0 STARLINK-6069,1 56804U 23078AP  24132.61313728  .00008122  00000-0  68642-3 0  9998,2 56804  70.0004 206.3219 0003008 270.2752  89.8062 14.98404247 53515,6949.963,96.102,573.919,569.738,0.0
56804.0,STARLINK-6069,PAYLOAD,2024-05-11 22:43:43,14.98301456,0.0002958,69.9999,205.4787,275.463,84.6191,-0.00035331,-4.303e-05,0.0,0 STARLINK-6069,1 56804U 23078AP  24132.94702734 -.00004303  00000-0 -35331-3 0  9991,2 56804  69.9999 205.4787 0002958 275.4630  84.6191 14.98301456 53569,6950.281,96.109,574.202,570.09,0.0
56804.0,STARLINK-6069,PAYLOAD,2024-05-12 11:33:00,14.98209227,0.0002633,70.0012,204.1348,262.3912,97.6948,-0.00085695,-0.00010271,0.0,0 STARLINK-6069,1 56804U 23078AP  24133.48125805 -.00010271  00000-0 -85695-3 0  9998,2 56804  70.0012 204.1348 0002633 262.3912  97.6948 14.98209227 53641,6950.566,96.115,574.261,570.601,0.0
56804.0,STARLINK-6069,PAYLOAD,2024-05-12 16:21:16,14.98263848,0.0002962,69.9996,203.6296,273.3831,86.6989,-0.00065049,-7.833e-05,0.0,0 STARLINK-6069,1 56804U 23078AP  24133.68144367 -.00007833  00000-0 -65049-3 0  9995,2 56804  69.9996 203.6296 0002962 273.3831  86.6989 14.98263848 53677,6950.397,96.111,574.321,570.204,0.0
56804.0,STARLINK-6069,PAYLOAD,2024-05-13 05:10:18,14.98331413,0.0002736,70.0004,202.2819,270.4955,89.5891,-0.00046461,-5.632e-05,0.0,0 STARLINK-6069,1 56804U 23078AP  24134.21548772 -.00005632  00000-0 -46461-3 0  9995,2 56804  70.0004 202.2819 0002736 270.4955  89.5891 14.98331413 53757,6950.189,96.107,573.955,570.152,0.0
56804.0,STARLINK-6069,PAYLOAD,2024-05-13 11:34:50,14.98332708,0.0002789,70.0005,201.6085,269.3483,90.7357,-0.00041937,-5.093e-05,0.0,0 STARLINK-6069,1 56804U 23078AP  24134.48252667 -.00005093  00000-0 -41937-3 0  9993,2 56804  70.0005 201.6085 0002789 269.3483  90.7357 14.98332708 54207,6950.185,96.107,573.988,570.111,0.0
56804.0,STARLINK-6069,PAYLOAD,2024-05-13 21:11:38,14.98349641,0.0002773,70.0008,200.5985,272.8811,87.203,-0.00055048,-6.658e-05,0.0,0 STARLINK-6069,1 56804U 23078AP  24134.88307964 -.00006658  00000-0 -55048-3 0  9994,2 56804  70.0008 200.5985 0002773 272.8811  87.2030 14.98349641 54263,6950.132,96.106,573.924,570.07,0.0
